ONEWEB-0409             
1 50488U 21132V   22166.25001157  .00040138  00000+0  11277+0 0  9994
2 50488  87.8888 311.9292 0002466  92.9502 209.8343 13.11388632 25121
ONEWEB-0412             
1 50489U 21132W   22166.25001157  .00071368  00000+0  68829-2 0  9992
2 50489  87.2240 296.2160 0003670  76.9585  98.6856 14.92542909 26772
ONEWEB-0413             
1 50490U 21132X   22166.25001157  .00069135  00000+0  66672-2 0  9997
2 50490  87.2183 296.0680 0004995  93.3110 165.0329 14.92553331 26734
ONEWEB-0414             
1 50491U 21132Y   22165.91667824 -.00033902  00000+0 -33204-2 0  9999
2 50491  87.2224 296.2910 0003729  35.2157 273.1807 14.92581140  1306
ONEWEB-0417             
1 50492U 21132Z   22165.91667824 -.00033343  00000+0 -32673-2 0  9998
2 50492  87.2256 296.3595 0004187  32.4464 333.3583 14.92556590  1302
ONEWEB-0418             
1 50493U 21132AA  22166.25001157  .00069409  00000+0  66853-2 0  9995
2 50493  87.2291 296.3246 0005664  68.8830 185.2392 14.92599308 26703
ONEWEB-0419             
1 50494U 21132AB  22166.25001157  .00070722  00000+0  68245-2 0  9993
2 50494  87.2172 296.0658 0003284  32.7578  63.0070 14.92524667 26725
ONEWEB-0420             
1 50495U 21132AC  22166.25001157  .00070689  00000+0  68189-2 0  9993
2 50495  87.2116 295.9413 0005123  93.5198 359.3374 14.92533954 26747
ONEWEB-0421             
1 50496U 21132AD  22165.91667824 -.00033544  00000+0 -32851-2 0  9993
2 50496  87.2152 296.1236 0004600 106.3595 256.2985 14.92580185  1303
ONEWEB-0424             
1 50497U 21132AE  22165.91667824 -.00033893  00000+0 -33081-2 0  9997
2 50497  87.2321 296.4929 0004279  60.9574 211.0192 14.92716465  1309
ONEWEB-0426             
1 50498U 21132AF  22166.25001157  .00069829  00000+0  67446-2 0  9995
2 50498  87.2194 296.1064 0002988  88.4867 146.2598 14.92493015 26725
ONEWEB-0427             
1 50499U 21132AG  22166.25001157  .00071271  00000+0  68713-2 0  9998
2 50499  87.2126 295.9656 0001583  62.1559  50.6482 14.92559526 26744
ONEWEB-0429             
1 50500U 21132AH  22166.25001157  .00069699  00000+0  67315-2 0  9999
2 50500  87.2164 296.0258 0004707  90.0073 148.6015 14.92492883 26732
ONEWEB-0430             
1 50501U 21132AJ  22166.25001157  .00071535  00000+0  69006-2 0  9991
2 50501  87.2295 296.3361 0003657  45.5034 112.6985 14.92532989 26695
ONEWEB-0432             
1 50502U 21132AK  22166.25001157  .00128499  00000+0  12300-1 0  9998
2 50502  87.2147 296.0078 0006070  91.3953 359.5666 14.92513812 26743
ONEWEB-0440             
1 50503U 21132AL  22166.25001157  .00071522  00000+0  68976-2 0  9994
2 50503  87.2183 296.0725 0004379  89.9586  81.5066 14.92541229 26725
ONEWEB-0450             
1 50504U 21132AM  22165.91667824 -.00032375  00000+0 -31732-2 0  9991
2 50504  87.2278 296.4033 0003943  66.1436 315.7765 14.92544455  1303
2021-134A               
1 50572U 21134A   22166.10003863  .00002001  00000+0  77568-4 0  9997
2 50572  88.9939 165.7445 0013645  11.4799  75.4014 15.25554523 25554
TJS-9                   
1 50574U 21135A   22165.78677014 -.00000293  00000+0  00000+0 0  9992
2 50574   0.0479 263.7539 0004625 221.4305 198.2928  1.00270943  1772
STARLINK-3321           
1 50803U 22001A   22166.16924563 -.00000963  00000+0 -42387-4 0  9991
2 50803  53.2163 170.1902 0002560  44.3469 315.7727 15.08832438 25833
STARLINK-3323           
1 50804U 22001B   22166.13704554 -.00000587  00000+0 -18763-4 0  9998
2 50804  53.2172 160.3384 0002333  51.9777 308.1426 15.08839384 25944
STARLINK-3333           
1 50805U 22001C   22166.13337762  .00000782  00000+0  67249-4 0  9990
2 50805  53.2156 160.3564 0002714  51.8941 308.2296 15.08840865 25966
STARLINK-3335           
1 50806U 22001D   22166.19592522 -.00000571  00000+0 -17766-4 0  9991
2 50806  53.2154 160.0799 0002525  49.8968 310.2245 15.08834162 25979
STARLINK-3353           
1 50807U 22001E   22166.11497448  .00001633  00000+0  12069-3 0  9993
2 50807  53.2185 160.4525 0002789  48.0361 312.0869 15.08842152 25964
STARLINK-3355           
1 50808U 22001F   22166.12232005  .00001366  00000+0  10396-3 0  9995
2 50808  53.2159 160.4120 0002852  48.3941 311.7295 15.08838424 25949
STARLINK-3232           
1 50809U 22001G   22166.12601016  .00001794  00000+0  13074-3 0  9999
2 50809  53.2164 160.3959 0002521  46.8109 313.3093 15.08850614 25979
STARLINK-3348           
1 50810U 22001H   22166.11865470  .00001438  00000+0  10846-3 0  9995
2 50810  53.2184 160.4383 0002560  44.2195 315.9001 15.08840672 25942
STARLINK-3347           
1 50811U 22001J   22166.17754973  .00000171  00000+0  28902-4 0  9993
2 50811  53.2206 160.1674 0002602  45.4861 314.6343 15.08832226 25983
STARLINK-3338           
1 50812U 22001K   22166.27415345  .00001172  00000+0  91745-4 0  9999
2 50812  53.2156 159.7248 0002460  45.2907 314.8285 15.08838456 25966
STARLINK-3349           
1 50813U 22001L   22166.17480120  .00000176  00000+0  29161-4 0  9998
2 50813  53.2203 160.1794 0003000  45.8991 314.2248 15.08842941 25958
STARLINK-3324           
1 50814U 22001M   22165.82334625 -.00000119  00000+0  10610-4 0  9995
2 50814  53.2181 171.7391 0001789  51.1492 308.9660 15.08835099 25788
STARLINK-3234           
1 50815U 22001N   22165.83437733  .00001698  00000+0  12477-3 0  9995
2 50815  53.2171 171.6895 0002541  46.5926 313.5277 15.08846110 24515
STARLINK-3342           
1 50816U 22001P   22165.73868785 -.00000042  00000+0  15475-4 0  9995
2 50816  53.2165 172.1428 0002343  45.9075 314.2109 15.08837601 24499
STARLINK-3341           
1 50817U 22001Q   22165.43325406  .00001821  00000+0  13249-3 0  9992
2 50817  53.2171 173.4973 0002635  43.8767 316.2434 15.08847262 24458
STARLINK-3336           
1 50818U 22001R   22165.74605175  .00001153  00000+0  90590-4 0  9994
2 50818  53.2152 172.0996 0002976  39.9585 320.1626 15.08837649 24499
STARLINK-3327           
1 50819U 22001S   22165.81964259 -.00000799  00000+0 -32115-4 0  9990
2 50819  53.2175 171.7550 0002044  55.1489 304.9695 15.08838832 24510
STARLINK-3339           
1 50820U 22001T   22165.73499989 -.00000534  00000+0 -15461-4 0  9998
2 50820  53.2165 172.1587 0002415  39.1820 320.9346 15.08834786 24491
STARLINK-3346           
1 50821U 22001U   22165.85277955  .00001215  00000+0  94442-4 0  9990
2 50821  53.2176 171.6362 0002377  44.4013 315.7169 15.08836842 24512
STARLINK-3343           
1 50822U 22001V   22165.72764668 -.00000473  00000+0 -11583-4 0  9991
2 50822  53.2178 172.1964 0002411  46.8152 313.3041 15.08840815 24493
STARLINK-3334           
1 50823U 22001W   22165.82700751  .00001200  00000+0  93542-4 0  9998
2 50823  53.2181 171.7239 0002846  43.5213 316.6003 15.08838248 24516
STARLINK-3340           
1 50824U 22001X   22165.72396660 -.00000402  00000+0 -71342-5 0  9998
2 50824  53.2166 172.2108 0002412  46.5151 313.6042 15.08835647 24491
STARLINK-3332           
1 50825U 22001Y   22165.73132545  .00001211  00000+0  94194-4 0  9996
2 50825  53.2168 172.1771 0002422  40.6913 319.4259 15.08835661 24491
STARLINK-3337           
1 50826U 22001Z   22165.70924089  .00000162  00000+0  28332-4 0  9991
2 50826  53.2160 172.2539 0002569  42.0875 318.0314 15.08841428 24497
STARLINK-3329           
1 50827U 22001AA  22165.74236845 -.00000197  00000+0  57400-5 0  9990
2 50827  53.2169 172.1282 0002306  43.2561 316.8612 15.08837944 24490
STARLINK-3290           
1 50828U 22001AB  22166.20331885  .00001449  00000+0  10912-3 0  9998
2 50828  53.2172 170.0594 0002535  44.0300 316.0893 15.08844407 25847
STARLINK-3294           
1 50829U 22001AC  22166.21339701 -.00000230  00000+0  36884-5 0  9991
2 50829  53.2166 170.0001 0002302  51.0764 309.0433 15.08847236 25832
STARLINK-3278           
1 50830U 22001AD  22165.76720454  .00000537  00000+0  51890-4 0  9993
2 50830  53.2176 182.0042 0002419  38.3649 321.7515 15.08825497 24366
STARLINK-3299           
1 50831U 22001AE  22165.70651157 -.00000233  00000+0  35096-5 0  9996
2 50831  53.2172 172.2634 0002379  45.6281 314.4906 15.08843733 24499
STARLINK-3328           
1 50832U 22001AF  22165.76353321  .00001485  00000+0  11141-3 0  9997
2 50832  53.2178 182.0201 0003222  36.1958 323.9252 15.08842892 24369
STARLINK-3316           
1 50833U 22001AG  22165.71289833  .00001071  00000+0  85505-4 0  9996
2 50833  53.2165 172.2327 0008476 307.3758  52.6461 15.08846454 24493
STARLINK-3331           
1 50834U 22001AH  22165.75249127 -.00000247  00000+0  25905-5 0  9997
2 50834  53.2159 182.0842 0002647  40.4243 319.6946 15.08834858 24350
STARLINK-3310           
1 50835U 22001AJ  22165.74512893 -.00000567  00000+0 -17529-4 0  9998
2 50835  53.2149 182.0975 0002663  41.0643 319.0549 15.08827171 24359
STARLINK-3330           
1 50836U 22001AK  22166.15359487 -.00000020  00000+0  16856-4 0  9998
2 50836  53.2170 180.2616 0003149  34.6537 325.4660 15.08840359 25670
STARLINK-3318           
1 50837U 22001AL  22165.71660837 -.00000864  00000+0 -36157-4 0  9997
2 50837  53.2182 172.2322 0002657  45.6911 314.4299 15.08833453 24492
STARLINK-3322           
1 50838U 22001AM  22166.18671778 -.00000226  00000+0  39152-5 0  9996
2 50838  53.2166 180.1219 0002955  35.2230 324.8958 15.08842907 25625
STARLINK-3320           
1 50839U 22001AN  22165.73407608 -.00000712  00000+0 -26603-4 0  9993
2 50839  53.2165 182.1458 0002981  39.5686 320.5523 15.08843013 24341
STARLINK-3295           
1 50840U 22001AP  22165.46544749 -.00000367  00000+0 -49377-5 0  9993
2 50840  53.2158 183.3493 0002801  40.1421 319.9777 15.08839006 24309
STARLINK-3300           
1 50841U 22001AQ  22165.74143948 -.00000420  00000+0 -82749-5 0  9991
2 50841  53.2146 182.1135 0002584  37.7069 322.4104 15.08841453 24352
STARLINK-3302           
1 50842U 22001AR  22166.19040724 -.00000487  00000+0 -12453-4 0  9997
2 50842  53.2151 180.1072 0002882  42.4343 317.6871 15.08839555 25703
